{
 "generated_at": "2026-07-21T07:32:50Z",
 "sources": [
  {
   "name": "CelesTrak",
   "url": "https://celestrak.org/NORAD/elements/",
   "license": "frei verfügbar; Attribution. Ursprünglich USSPACECOM/Space-Track."
  },
  {
   "name": "GCAT (J. McDowell, planet4589.org)",
   "url": "https://planet4589.org/space/gcat/",
   "license": "CC-BY 4.0"
  }
 ],
 "satellites": [
  {
   "norad": 39419,
   "name": "DUBAISAT-2",
   "intl": "2013-066D",
   "group": "resource",
   "gcat": {
    "class": "C",
    "category": "IMG",
    "owner": "EIAST",
    "state": "UAE"
   },
   "omm": {
    "OBJECT_NAME": "DUBAISAT-2",
    "OBJECT_ID": "2013-066D",
    "EPOCH": "2026-07-20T22:14:09.267360",
    "MEAN_MOTION": 15.10394433,
    "ECCENTRICITY": 0.00092497,
    "INCLINATION": 97.4585,
    "RA_OF_ASC_NODE": 191.1949,
    "ARG_OF_PERICENTER": 278.9763,
    "MEAN_ANOMALY": 81.0419,
    "EPHEMERIS_TYPE": 0,
    "CLASSIFICATION_TYPE": "U",
    "NORAD_CAT_ID": 39419,
    "ELEMENT_SET_NO": 999,
    "REV_AT_EPOCH": 69148,
    "BSTAR": 0.0001184445,
    "MEAN_MOTION_DOT": 0.00001884,
    "MEAN_MOTION_DDOT": 0
   }
  },
  {
   "norad": 41105,
   "name": "ELEKTRO-L 2",
   "intl": "2015-074A",
   "group": "weather",
   "gcat": {
    "class": "C",
    "category": "MET",
    "owner": "RGMS/NPOLO",
    "state": "RU"
   },
   "omm": {
    "OBJECT_NAME": "ELEKTRO-L 2",
    "OBJECT_ID": "2015-074A",
    "EPOCH": "2026-07-20T19:54:13.909824",
    "MEAN_MOTION": 1.00272327,
    "ECCENTRICITY": 0.00008028,
    "INCLINATION": 6.7766,
    "RA_OF_ASC_NODE": 70.1096,
    "ARG_OF_PERICENTER": 228.6874,
    "MEAN_ANOMALY": 283.8681,
    "EPHEMERIS_TYPE": 0,
    "CLASSIFICATION_TYPE": "U",
    "NORAD_CAT_ID": 41105,
    "ELEMENT_SET_NO": 999,
    "REV_AT_EPOCH": 3884,
    "BSTAR": 0,
    "MEAN_MOTION_DOT": -0.00000122,
    "MEAN_MOTION_DDOT": 0
   }
  },
  {
   "norad": 51656,
   "name": "EOS-4",
   "intl": "2022-013A",
   "group": "sar",
   "gcat": {
    "class": "C",
    "category": "IMG-R",
    "owner": "ISRO",
    "state": "IN"
   },
   "omm": {
    "OBJECT_NAME": "EOS-4",
    "OBJECT_ID": "2022-013A",
    "EPOCH": "2026-07-20T23:12:01.846656",
    "MEAN_MOTION": 15.12731407,
    "ECCENTRICITY": 0.00020297,
    "INCLINATION": 97.512,
    "RA_OF_ASC_NODE": 208.1003,
    "ARG_OF_PERICENTER": 91.4475,
    "MEAN_ANOMALY": 268.6988,
    "EPHEMERIS_TYPE": 0,
    "CLASSIFICATION_TYPE": "U",
    "NORAD_CAT_ID": 51656,
    "ELEMENT_SET_NO": 999,
    "REV_AT_EPOCH": 24459,
    "BSTAR": 0.000060767792,
    "MEAN_MOTION_DOT": 0.00001,
    "MEAN_MOTION_DDOT": 0
   }
  },
  {
   "norad": 36411,
   "name": "EWS-G2 (GOES 15)",
   "intl": "2010-008A",
   "group": "weather",
   "gcat": {
    "class": "C",
    "category": "MET",
    "owner": "NOAA",
    "state": "US"
   },
   "omm": {
    "OBJECT_NAME": "EWS-G2 (GOES 15)",
    "OBJECT_ID": "2010-008A",
    "EPOCH": "2026-07-20T21:59:02.425056",
    "MEAN_MOTION": 1.00269471,
    "ECCENTRICITY": 0.00054495,
    "INCLINATION": 1.3686,
    "RA_OF_ASC_NODE": 82.3995,
    "ARG_OF_PERICENTER": 53.6341,
    "MEAN_ANOMALY": 195.6588,
    "EPHEMERIS_TYPE": 0,
    "CLASSIFICATION_TYPE": "U",
    "NORAD_CAT_ID": 36411,
    "ELEMENT_SET_NO": 999,
    "REV_AT_EPOCH": 5997,
    "BSTAR": 0,
    "MEAN_MOTION_DOT": 2.2e-7,
    "MEAN_MOTION_DDOT": 0
   }
  },
  {
   "norad": 35491,
   "name": "EWS-G3 (GOES 14)",
   "intl": "2009-033A",
   "group": "weather",
   "gcat": {
    "class": "C",
    "category": "MET",
    "owner": "NOAA",
    "state": "US"
   },
   "omm": {
    "OBJECT_NAME": "EWS-G3 (GOES 14)",
    "OBJECT_ID": "2009-033A",
    "EPOCH": "2026-07-20T22:15:38.333664",
    "MEAN_MOTION": 1.00095663,
    "ECCENTRICITY": 0.00021564,
    "INCLINATION": 1.7746,
    "RA_OF_ASC_NODE": 82.6256,
    "ARG_OF_PERICENTER": 39.0794,
    "MEAN_ANOMALY": 272.3629,
    "EPHEMERIS_TYPE": 0,
    "CLASSIFICATION_TYPE": "U",
    "NORAD_CAT_ID": 35491,
    "ELEMENT_SET_NO": 999,
    "REV_AT_EPOCH": 692,
    "BSTAR": 0,
    "MEAN_MOTION_DOT": -0.0000036,
    "MEAN_MOTION_DDOT": 0
   }
  },
  {
   "norad": 38709,
   "name": "EXACTVIEW-1 (ADS-1B)",
   "intl": "2012-039C",
   "group": "resource",
   "gcat": {
    "class": "B",
    "category": "COM",
    "owner": "EXEA",
    "state": "CA"
   },
   "omm": {
    "OBJECT_NAME": "EXACTVIEW-1 (ADS-1B)",
    "OBJECT_ID": "2012-039C",
    "EPOCH": "2026-07-20T20:58:33.725280",
    "MEAN_MOTION": 14.24993201,
    "ECCENTRICITY": 0.00118853,
    "INCLINATION": 98.981,
    "RA_OF_ASC_NODE": 320.0303,
    "ARG_OF_PERICENTER": 76.6312,
    "MEAN_ANOMALY": 283.6191,
    "EPHEMERIS_TYPE": 0,
    "CLASSIFICATION_TYPE": "U",
    "NORAD_CAT_ID": 38709,
    "ELEMENT_SET_NO": 999,
    "REV_AT_EPOCH": 72750,
    "BSTAR": 0.000041696733,
    "MEAN_MOTION_DOT": 5.1e-7,
    "MEAN_MOTION_DDOT": 0
   }
  },
  {
   "norad": 40367,
   "name": "FENGYUN 2G",
   "intl": "2014-090A",
   "group": "weather",
   "gcat": {
    "class": "C",
    "category": "MET",
    "owner": "NSMC",
    "state": "CN"
   },
   "omm": {
    "OBJECT_NAME": "FENGYUN 2G",
    "OBJECT_ID": "2014-090A",
    "EPOCH": "2026-07-19T15:21:36.356832",
    "MEAN_MOTION": 1.00279249,
    "ECCENTRICITY": 0.00039431,
    "INCLINATION": 5.7192,
    "RA_OF_ASC_NODE": 72.4242,
    "ARG_OF_PERICENTER": 173.6464,
    "MEAN_ANOMALY": 21.2039,
    "EPHEMERIS_TYPE": 0,
    "CLASSIFICATION_TYPE": "U",
    "NORAD_CAT_ID": 40367,
    "ELEMENT_SET_NO": 999,
    "REV_AT_EPOCH": 4232,
    "BSTAR": 0,
    "MEAN_MOTION_DOT": -0.00000309,
    "MEAN_MOTION_DDOT": 0
   }
  },
  {
   "norad": 43491,
   "name": "FENGYUN 2H",
   "intl": "2018-050A",
   "group": "weather",
   "gcat": {
    "class": "C",
    "category": "MET",
    "owner": "NSMC",
    "state": "CN"
   },
   "omm": {
    "OBJECT_NAME": "FENGYUN 2H",
    "OBJECT_ID": "2018-050A",
    "EPOCH": "2026-07-20T22:28:03.829152",
    "MEAN_MOTION": 1.00267074,
    "ECCENTRICITY": 0.00020877,
    "INCLINATION": 3.1164,
    "RA_OF_ASC_NODE": 78.682,
    "ARG_OF_PERICENTER": 128.8299,
    "MEAN_ANOMALY": 147.2467,
    "EPHEMERIS_TYPE": 0,
    "CLASSIFICATION_TYPE": "U",
    "NORAD_CAT_ID": 43491,
    "ELEMENT_SET_NO": 999,
    "REV_AT_EPOCH": 2977,
    "BSTAR": 0,
    "MEAN_MOTION_DOT": -0.00000128,
    "MEAN_MOTION_DDOT": 0
   }
  },
  {
   "norad": 32958,
   "name": "FENGYUN 3A",
   "intl": "2008-026A",
   "group": "weather",
   "gcat": {
    "class": null,
    "category": null,
    "owner": null,
    "state": null
   },
   "omm": {
    "OBJECT_NAME": "FENGYUN 3A",
    "OBJECT_ID": "2008-026A",
    "EPOCH": "2026-07-20T19:24:45.466848",
    "MEAN_MOTION": 14.19577262,
    "ECCENTRICITY": 0.00094542,
    "INCLINATION": 98.6886,
    "RA_OF_ASC_NODE": 142.0143,
    "ARG_OF_PERICENTER": 37.1178,
    "MEAN_ANOMALY": 323.0651,
    "EPHEMERIS_TYPE": 0,
    "CLASSIFICATION_TYPE": "U",
    "NORAD_CAT_ID": 32958,
    "ELEMENT_SET_NO": 999,
    "REV_AT_EPOCH": 94017,
    "BSTAR": 0.000037299227,
    "MEAN_MOTION_DOT": 3.5e-7,
    "MEAN_MOTION_DDOT": 0
   }
  },
  {
   "norad": 37214,
   "name": "FENGYUN 3B",
   "intl": "2010-059A",
   "group": "weather",
   "gcat": {
    "class": null,
    "category": null,
    "owner": null,
    "state": null
   },
   "omm": {
    "OBJECT_NAME": "FENGYUN 3B",
    "OBJECT_ID": "2010-059A",
    "EPOCH": "2026-07-20T23:26:52.081152",
    "MEAN_MOTION": 14.14848233,
    "ECCENTRICITY": 0.00232208,
    "INCLINATION": 98.9601,
    "RA_OF_ASC_NODE": 248.1315,
    "ARG_OF_PERICENTER": 91.1327,
    "MEAN_ANOMALY": 27.114,
    "EPHEMERIS_TYPE": 0,
    "CLASSIFICATION_TYPE": "U",
    "NORAD_CAT_ID": 37214,
    "ELEMENT_SET_NO": 999,
    "REV_AT_EPOCH": 81220,
    "BSTAR": 0.000016368976,
    "MEAN_MOTION_DOT": -1.3e-7,
    "MEAN_MOTION_DDOT": 0
   }
  }
 ]
}
